{
  "norad_id": 58489,
  "name": "STARLINK-30993",
  "history": [
    {
      "epoch": "2026-03-28T21:37:24.945024Z",
      "apogee_km": 484.06922757761095,
      "perigee_km": 482.00675837472227,
      "latitude_deg": 5.728176169819727e-05,
      "longitude_deg": 164.53783803118947,
      "height_km": 482.9110482534421,
      "semi_major_axis_km": 6861.174992976166,
      "eccentricity": 0.0001503,
      "inclination_deg": 43.002,
      "raan_deg": 315.2065,
      "arg_perigee_deg": 264.6545,
      "mean_anomaly_deg": 95.4136,
      "mean_motion_rev_day": 15.27583708
    },
    {
      "epoch": "2026-03-29T00:45:43.708032Z",
      "apogee_km": 484.0883115515262,
      "perigee_km": 481.9942799356659,
      "latitude_deg": -1.1809889257612408e-05,
      "longitude_deg": 116.5932896573733,
      "height_km": 482.88779481709986,
      "semi_major_axis_km": 6861.178295743595,
      "eccentricity": 0.0001526,
      "inclination_deg": 43.0028,
      "raan_deg": 314.4691,
      "arg_perigee_deg": 266.1998,
      "mean_anomaly_deg": 93.8679,
      "mean_motion_rev_day": 15.27582605
    },
    {
      "epoch": "2026-03-30T00:18:04.204224Z",
      "apogee_km": 484.1711700873093,
      "perigee_km": 481.911098009954,
      "latitude_deg": 4.940166242359162e-06,
      "longitude_deg": 117.00309374831056,
      "height_km": 482.8029977284403,
      "semi_major_axis_km": 6861.178134048631,
      "eccentricity": 0.0001647,
      "inclination_deg": 43.0031,
      "raan_deg": 308.931,
      "arg_perigee_deg": 270.7801,
      "mean_anomaly_deg": 89.2862,
      "mean_motion_rev_day": 15.27582659
    },
    {
      "epoch": "2026-03-30T00:18:04.205088Z",
      "apogee_km": 484.1708956401844,
      "perigee_km": 481.91137245707887,
      "latitude_deg": 1.7954293180149207e-06,
      "longitude_deg": 117.00308678513447,
      "height_km": 482.8030014642513,
      "semi_major_axis_km": 6861.178134048631,
      "eccentricity": 0.00016466,
      "inclination_deg": 43.0031,
      "raan_deg": 308.931,
      "arg_perigee_deg": 270.7801,
      "mean_anomaly_deg": 89.2862,
      "mean_motion_rev_day": 15.27582659
    },
    {
      "epoch": "2026-03-30T20:42:06.594912Z",
      "apogee_km": 484.28080465078074,
      "perigee_km": 481.87828106613324,
      "latitude_deg": 2.9242593307822728e-05,
      "longitude_deg": 165.35483394200114,
      "height_km": 482.7659725577966,
      "semi_major_axis_km": 6861.216542858457,
      "eccentricity": 0.00017508,
      "inclination_deg": 43.0032,
      "raan_deg": 304.1305,
      "arg_perigee_deg": 274.3406,
      "mean_anomaly_deg": 85.7246,
      "mean_motion_rev_day": 15.27569832
    },
    {
      "epoch": "2026-03-30T23:50:25.661184Z",
      "apogee_km": 484.1961412290366,
      "perigee_km": 481.9862768474695,
      "latitude_deg": -2.1688704090727036e-05,
      "longitude_deg": 117.40993804876629,
      "height_km": 482.5607699398711,
      "semi_major_axis_km": 6861.228209038252,
      "eccentricity": 0.00016104,
      "inclination_deg": 43.002,
      "raan_deg": 303.394,
      "arg_perigee_deg": 286.1603,
      "mean_anomaly_deg": 73.9071,
      "mean_motion_rev_day": 15.27565936
    },
    {
      "epoch": "2026-04-01T19:46:48.290592Z",
      "apogee_km": 484.1860312474291,
      "perigee_km": 481.9643707367477,
      "latitude_deg": -2.552937123086877e-05,
      "longitude_deg": 166.1699111381642,
      "height_km": 482.7901663758881,
      "semi_major_axis_km": 6861.212200992089,
      "eccentricity": 0.0001619,
      "inclination_deg": 43.0016,
      "raan_deg": 293.0528,
      "arg_perigee_deg": 273.2049,
      "mean_anomaly_deg": 86.8617,
      "mean_motion_rev_day": 15.27571282
    },
    {
      "epoch": "2026-04-02T19:19:08.899968Z",
      "apogee_km": 484.3090572775718,
      "perigee_km": 481.82392937228815,
      "latitude_deg": -9.448476112924978e-06,
      "longitude_deg": 166.57754189776588,
      "height_km": 483.0158017848093,
      "semi_major_axis_km": 6861.20349332493,
      "eccentricity": 0.0001811,
      "inclination_deg": 43.0024,
      "raan_deg": 287.513,
      "arg_perigee_deg": 262.0412,
      "mean_anomaly_deg": 98.0234,
      "mean_motion_rev_day": 15.2757419
    },
    {
      "epoch": "2026-04-02T20:53:18.269376Z",
      "apogee_km": 484.30219413371833,
      "perigee_km": 481.8040348130371,
      "latitude_deg": -2.111573537515656e-05,
      "longitude_deg": 142.60514270223808,
      "height_km": 482.96805500470674,
      "semi_major_axis_km": 6861.190114473377,
      "eccentricity": 0.00018205,
      "inclination_deg": 43.0018,
      "raan_deg": 287.1441,
      "arg_perigee_deg": 263.6695,
      "mean_anomaly_deg": 96.3949,
      "mean_motion_rev_day": 15.27578658
    },
    {
      "epoch": "2026-04-03T14:09:01.237824Z",
      "apogee_km": 484.3572784456346,
      "perigee_km": 481.72670242070217,
      "latitude_deg": 1.3080720741490038e-05,
      "longitude_deg": -121.0968784935188,
      "height_km": 483.0288775456259,
      "semi_major_axis_km": 6861.178990433168,
      "eccentricity": 0.0001917,
      "inclination_deg": 43.0025,
      "raan_deg": 283.08,
      "arg_perigee_deg": 260.8328,
      "mean_anomaly_deg": 99.2307,
      "mean_motion_rev_day": 15.27582373
    },
    {
      "epoch": "2026-04-04T12:07:13.149120Z",
      "apogee_km": 485.0869387661269,
      "perigee_km": 481.08286688807493,
      "latitude_deg": 5.171501451425634e-05,
      "longitude_deg": -96.71484303825757,
      "height_km": 482.3765233122384,
      "semi_major_axis_km": 6861.221902827101,
      "eccentricity": 0.00029179,
      "inclination_deg": 43.0048,
      "raan_deg": 277.9139,
      "arg_perigee_deg": 284.0705,
      "mean_anomaly_deg": 75.9823,
      "mean_motion_rev_day": 15.27568042
    },
    {
      "epoch": "2026-04-05T13:13:43.945248Z",
      "apogee_km": 484.8913895791284,
      "perigee_km": 481.3014550279113,
      "latitude_deg": -1.756933956623614e-06,
      "longitude_deg": -120.28449040261552,
      "height_km": 482.51054842652053,
      "semi_major_axis_km": 6861.23342230352,
      "eccentricity": 0.00026161,
      "inclination_deg": 43.0037,
      "raan_deg": 272.0038,
      "arg_perigee_deg": 281.6972,
      "mean_anomaly_deg": 78.3586,
      "mean_motion_rev_day": 15.27564195
    },
    {
      "epoch": "2026-04-07T12:18:24.908256Z",
      "apogee_km": 484.58200150191624,
      "perigee_km": 481.5597766509363,
      "latitude_deg": -1.4731016465754787e-05,
      "longitude_deg": -119.46831484346981,
      "height_km": 482.9763131821039,
      "semi_major_axis_km": 6861.207889076426,
      "eccentricity": 0.00022024,
      "inclination_deg": 43.0046,
      "raan_deg": 260.9241,
      "arg_perigee_deg": 265.1557,
      "mean_anomaly_deg": 94.9043,
      "mean_motion_rev_day": 15.27572722
    },
    {
      "epoch": "2026-04-07T20:09:12.131136Z",
      "apogee_km": 484.6985841023925,
      "perigee_km": 481.47243727786554,
      "latitude_deg": -2.3811869831022337e-05,
      "longitude_deg": 120.66887023351224,
      "height_km": 482.83157935389136,
      "semi_major_axis_km": 6861.222510690129,
      "eccentricity": 0.0002351,
      "inclination_deg": 43.0071,
      "raan_deg": 259.0803,
      "arg_perigee_deg": 271.1423,
      "mean_anomaly_deg": 88.9159,
      "mean_motion_rev_day": 15.27567839
    },
    {
      "epoch": "2026-04-08T11:50:46.258944Z",
      "apogee_km": 484.7621888895883,
      "perigee_km": 481.4258466948768,
      "latitude_deg": -3.563223930809842e-05,
      "longitude_deg": -119.06012450388597,
      "height_km": 482.77880610948205,
      "semi_major_axis_km": 6861.231017792232,
      "eccentricity": 0.00024313,
      "inclination_deg": 43.0072,
      "raan_deg": 255.388,
      "arg_perigee_deg": 273.2135,
      "mean_anomaly_deg": 86.8438,
      "mean_motion_rev_day": 15.27564998
    },
    {
      "epoch": "2026-04-10T03:04:40.543392Z",
      "apogee_km": 484.675234786474,
      "perigee_km": 481.4418277804016,
      "latitude_deg": -9.007137623910144e-07,
      "longitude_deg": 1.6210320036314914,
      "height_km": 482.67547645856047,
      "semi_major_axis_km": 6861.195531283438,
      "eccentricity": 0.00023563,
      "inclination_deg": 43.0071,
      "raan_deg": 246.1565,
      "arg_perigee_deg": 275.7257,
      "mean_anomaly_deg": 84.3326,
      "mean_motion_rev_day": 15.27576849
    },
    {
      "epoch": "2026-04-11T16:44:25.931040Z",
      "apogee_km": 484.5569476493092,
      "perigee_km": 481.57506882192956,
      "latitude_deg": 2.3091035089740615e-05,
      "longitude_deg": 146.27269088383647,
      "height_km": 482.83504520187813,
      "semi_major_axis_km": 6861.203008235619,
      "eccentricity": 0.0002173,
      "inclination_deg": 43.0047,
      "raan_deg": 237.294,
      "arg_perigee_deg": 270.3377,
      "mean_anomaly_deg": 89.7226,
      "mean_motion_rev_day": 15.27574352
    },
    {
      "epoch": "2026-04-13T01:41:42.784512Z",
      "apogee_km": 485.1430877654593,
      "perigee_km": 480.97984975858435,
      "latitude_deg": 5.807770028666136e-05,
      "longitude_deg": 2.8440037670955447,
      "height_km": 482.8918992476099,
      "semi_major_axis_km": 6861.198468762022,
      "eccentricity": 0.00030339,
      "inclination_deg": 43.0064,
      "raan_deg": 229.5389,
      "arg_perigee_deg": 268.5725,
      "mean_anomaly_deg": 91.478,
      "mean_motion_rev_day": 15.27575868
    },
    {
      "epoch": "2026-04-14T15:21:29.291040Z",
      "apogee_km": 484.3799727460937,
      "perigee_km": 481.92088733116725,
      "latitude_deg": -2.231809244875843e-05,
      "longitude_deg": 147.4893812610267,
      "height_km": 482.93116750340744,
      "semi_major_axis_km": 6861.28743003863,
      "eccentricity": 0.0001792,
      "inclination_deg": 43.0056,
      "raan_deg": 220.6749,
      "arg_perigee_deg": 269.8559,
      "mean_anomaly_deg": 90.2087,
      "mean_motion_rev_day": 15.27546159
    },
    {
      "epoch": "2026-04-15T14:53:49.422624Z",
      "apogee_km": 484.49164966715216,
      "perigee_km": 481.68540842577295,
      "latitude_deg": 4.0908054229336606e-05,
      "longitude_deg": 147.89985954304214,
      "height_km": 482.896332361489,
      "semi_major_axis_km": 6861.225529046463,
      "eccentricity": 0.0002045,
      "inclination_deg": 43.0059,
      "raan_deg": 215.1359,
      "arg_perigee_deg": 268.7771,
      "mean_anomaly_deg": 91.2847,
      "mean_motion_rev_day": 15.27566831
    },
    {
      "epoch": "2026-04-16T14:26:10.133088Z",
      "apogee_km": 484.54566137598977,
      "perigee_km": 481.60082993855394,
      "latitude_deg": -5.3619644439962836e-05,
      "longitude_deg": 148.3080511319521,
      "height_km": 482.8463230157947,
      "semi_major_axis_km": 6861.210245657271,
      "eccentricity": 0.0002146,
      "inclination_deg": 43.0064,
      "raan_deg": 209.5972,
      "arg_perigee_deg": 270.1916,
      "mean_anomaly_deg": 89.8689,
      "mean_motion_rev_day": 15.27571935
    },
    {
      "epoch": "2026-04-17T13:58:31.150272Z",
      "apogee_km": 484.4685874176357,
      "perigee_km": 481.68609055460365,
      "latitude_deg": -3.4117038050664696e-05,
      "longitude_deg": 148.71558233086,
      "height_km": 482.90920369873544,
      "semi_major_axis_km": 6861.214338986119,
      "eccentricity": 0.00020277,
      "inclination_deg": 43.0048,
      "raan_deg": 204.059,
      "arg_perigee_deg": 267.7698,
      "mean_anomaly_deg": 92.2921,
      "mean_motion_rev_day": 15.27570568
    }
  ]
}